NORAD_CAT_ID,OBJECT_NAME,OBJECT_TYPE,EPOCH,MEAN_MOTION,ECCENTRICITY,INCLINATION,RA_OF_ASC_NODE,ARG_OF_PERICENTER,MEAN_ANOMALY,BSTAR,MEAN_MOTION_DOT,MEAN_MOTION_DDOT,TLE_LINE0,TLE_LINE1,TLE_LINE2,SEMIMAJOR_AXIS,PERIOD,APOGEE,PERIGEE,DECAYED
52455.0,STARLINK-3890,PAYLOAD,2024-08-06 05:45:44,15.08809841,0.0001423,53.2159,154.8614,106.4581,253.6567,6.839e-05,8e-06,0.0,0 STARLINK-3890,1 52455U 22049E   24219.24010393  .00000800  00000-0  68390-4 0  9996,2 52455  53.2159 154.8614 0001423 106.4581 253.6567 15.08809841124489,6917.973,95.439,540.822,538.853,0.0
52455.0,STARLINK-3890,PAYLOAD,2024-08-06 20:04:13,15.08839282,0.0001346,53.2164,152.1864,110.4857,249.628,0.001632,0.0002578,0.0,0 STARLINK-3890,1 52455U 22049E   24219.83627095  .00025780  00000-0  16320-2 0  9992,2 52455  53.2164 152.1864 0001346 110.4857 249.6280 15.08839282124735,6917.883,95.438,540.679,538.816,0.0
52455.0,STARLINK-3890,PAYLOAD,2024-08-07 02:25:46,15.08866158,0.0001402,53.2164,150.9969,113.3793,246.7347,0.0022034,0.00034979,0.0,0 STARLINK-3890,1 52455U 22049E   24220.10122737  .00034979  00000-0  22034-2 0  9996,2 52455  53.2164 150.9969 0001402 113.3793 246.7347 15.08866158124779,6917.8,95.436,540.635,538.696,0.0
52455.0,STARLINK-3890,PAYLOAD,2024-08-08 05:27:18,15.08864185,0.0001317,53.2162,145.9418,99.146,260.9681,0.0025415,0.00040419,0.0,0 STARLINK-3890,1 52455U 22049E   24221.22729793  .00040419  00000-0  25415-2 0  9997,2 52455  53.2162 145.9418 0001317  99.1460 260.9681 15.08864185124785,6917.806,95.436,540.583,538.76,0.0
52455.0,STARLINK-3890,PAYLOAD,2024-08-09 05:18:05,15.08845327,0.0001426,53.2169,141.4784,90.7834,269.3322,0.00023213,3.409e-05,0.0,0 STARLINK-3890,1 52455U 22049E   24222.22089772  .00003409  00000-0  23213-3 0  9997,2 52455  53.2169 141.4784 0001426  90.7834 269.3322 15.08845327125099,6917.864,95.437,540.716,538.743,0.0
52455.0,STARLINK-3890,PAYLOAD,2024-08-09 11:39:37,15.08867405,0.0001757,53.2161,140.2938,89.7276,270.3918,0.00055788,8.608e-05,0.0,0 STARLINK-3890,1 52455U 22049E   24222.48584760  .00008608  00000-0  55788-3 0  9990,2 52455  53.2161 140.2938 0001757  89.7276 270.3918 15.08867405125133,6917.797,95.436,540.877,538.446,0.0
52455.0,STARLINK-3890,PAYLOAD,2024-08-10 03:33:28,15.08854045,0.0001343,53.217,137.3153,79.8383,280.2761,0.00025622,3.794e-05,0.0,0 STARLINK-3890,1 52455U 22049E   24223.14825100  .00003794  00000-0  25622-3 0  9995,2 52455  53.2170 137.3153 0001343  79.8383 280.2761 15.08854045125232,6917.837,95.437,540.632,538.773,0.0
52455.0,STARLINK-3890,PAYLOAD,2024-08-10 22:38:07,15.08836189,0.0001505,53.2167,133.7499,65.7261,294.3888,6.619e-05,7.65e-06,0.0,0 STARLINK-3890,1 52455U 22049E   24223.94313877  .00000765  00000-0  66190-4 0  9997,2 52455  53.2167 133.7499 0001505  65.7261 294.3888 15.08836189125190,6917.892,95.438,540.798,538.716,0.0
52455.0,STARLINK-3890,PAYLOAD,2024-08-11 00:13:30,15.08842952,0.0001442,53.2162,133.4503,78.6586,281.4568,5.548e-05,5.95e-06,0.0,0 STARLINK-3890,1 52455U 22049E   24224.00937631  .00000595  00000-0  55480-4 0  9996,2 52455  53.2162 133.4503 0001442  78.6586 281.4568 15.08842952125367,6917.871,95.437,540.734,538.739,0.0
52455.0,STARLINK-3890,PAYLOAD,2024-08-11 11:21:10,15.08867824,0.0001804,53.2159,131.3695,75.0796,285.0396,0.00052383,8.065e-05,0.0,0 STARLINK-3890,1 52455U 22049E   24224.47304270  .00008065  00000-0  52383-3 0  9992,2 52455  53.2159 131.3695 0001804  75.0796 285.0396 15.08867824125430,6917.795,95.436,540.908,538.412,0.0
52455.0,STARLINK-3890,PAYLOAD,2024-08-11 17:42:45,15.0881968,0.0001934,53.2158,130.1813,75.4951,284.6256,-0.00046489,-7.675e-05,0.0,0 STARLINK-3890,1 52455U 22049E   24224.73802088 -.00007675  00000-0 -46489-3 0  9999,2 52455  53.2158 130.1813 0001934  75.4951 284.6256 15.08819680125470,6917.942,95.439,541.145,538.47,0.0
52455.0,STARLINK-3890,PAYLOAD,2024-08-11 22:28:54,15.08826615,0.0001972,53.215,129.2916,71.02,289.1006,-7.6398e-05,-1.503e-05,0.0,0 STARLINK-3890,1 52455U 22049E   24224.93674263 -.00001503  00000-0 -76398-4 0  9990,2 52455  53.2150 129.2916 0001972  71.0200 289.1006 15.08826615125341,6917.921,95.438,541.151,538.422,0.0
52455.0,STARLINK-3890,PAYLOAD,2024-08-12 03:15:03,15.08844515,0.0001546,53.2168,128.3918,90.1898,269.9272,0.00014816,2.071e-05,0.0,0 STARLINK-3890,1 52455U 22049E   24225.13545301  .00002071  00000-0  14816-3 0  9998,2 52455  53.2168 128.3918 0001546  90.1898 269.9272 15.08844515125535,6917.867,95.437,540.801,538.662,0.0
52455.0,STARLINK-3890,PAYLOAD,2024-08-12 22:19:40,15.08859923,0.000162,53.2171,124.8263,91.3269,268.7909,0.0005349,8.24e-05,0.0,0 STARLINK-3890,1 52455U 22049E   24225.93032930  .00008240  00000-0  53490-3 0  9990,2 52455  53.2171 124.8263 0001620  91.3269 268.7909 15.08859923125499,6917.819,95.436,540.805,538.564,0.0
52455.0,STARLINK-3890,PAYLOAD,2024-08-13 03:05:51,15.08795905,0.000146,53.2154,123.9362,87.0967,273.0193,-0.0008659,-0.00014026,0.0,0 STARLINK-3890,1 52455U 22049E   24226.12907245 -.00014026  00000-0 -86590-3 0  9990,2 52455  53.2154 123.9362 0001460  87.0967 273.0193 15.08795905125683,6918.015,95.44,540.89,538.87,0.0
52455.0,STARLINK-3890,PAYLOAD,2024-08-13 17:24:20,15.08795787,0.0001391,53.2159,121.2606,85.8737,274.2414,-0.00054051,-8.869e-05,0.0,0 STARLINK-3890,1 52455U 22049E   24226.72524281 -.00008869  00000-0 -54051-3 0  9996,2 52455  53.2159 121.2606 0001391  85.8737 274.2414 15.08795787125771,6918.016,95.44,540.843,538.918,0.0
52455.0,STARLINK-3890,PAYLOAD,2024-08-14 02:56:40,15.08812471,0.0002851,53.216,119.4719,97.6742,262.4574,-2.9907e-05,-7.64e-06,0.0,0 STARLINK-3890,1 52455U 22049E   24227.12269139 -.00000764  00000-0 -29907-4 0  9998,2 52455  53.2160 119.4719 0002851  97.6742 262.4574 15.08812471125839,6917.965,95.439,541.802,537.857,0.0
52455.0,STARLINK-3890,PAYLOAD,2024-08-14 22:01:17,15.08868959,0.0001404,53.2153,115.9053,82.2267,277.8885,0.001371,0.00021616,0.0,0 STARLINK-3890,1 52455U 22049E   24227.91756242  .00021616  00000-0  13710-2 0  9991,2 52455  53.2153 115.9053 0001404  82.2267 277.8885 15.08868959125790,6917.792,95.436,540.628,538.686,0.0
52455.0,STARLINK-3890,PAYLOAD,2024-08-15 09:08:58,15.08895345,0.0001331,53.2154,113.8252,86.1816,273.9328,0.0015452,0.00024427,0.0,0 STARLINK-3890,1 52455U 22049E   24228.38122814  .00024427  00000-0  15452-2 0  9993,2 52455  53.2154 113.8252 0001331  86.1816 273.9328 15.08895345125867,6917.711,95.434,540.497,538.655,0.0
52455.0,STARLINK-3890,PAYLOAD,2024-08-15 23:27:26,15.08847473,0.0001312,53.2154,111.1482,66.6273,293.4857,0.0012885,0.00020282,0.0,0 STARLINK-3890,1 52455U 22049E   24228.97738977  .00020282  00000-0  12885-2 0  9993,2 52455  53.2154 111.1482 0001312  66.6273 293.4857 15.08847473125955,6917.858,95.437,540.63,538.815,0.0
52455.0,STARLINK-3890,PAYLOAD,2024-08-16 21:42:50,15.08854316,0.0001321,53.2154,106.9906,97.1503,262.9639,0.001166,0.00018325,0.0,0 STARLINK-3890,1 52455U 22049E   24229.90475079  .00018325  00000-0  11660-2 0  9993,2 52455  53.2154 106.9906 0001321  97.1503 262.9639 15.08854316126092,6917.837,95.437,540.615,538.788,0.0
52455.0,STARLINK-3890,PAYLOAD,2024-08-17 02:28:59,15.08848432,0.0001343,53.2152,106.0959,92.0653,268.0493,0.00044797,6.85e-05,0.0,0 STARLINK-3890,1 52455U 22049E   24230.10346949  .00006850  00000-0  44797-3 0  9998,2 52455  53.2152 106.0959 0001343  92.0653 268.0493 15.08848432126281,6917.855,95.437,540.649,538.791,0.0
52455.0,STARLINK-3890,PAYLOAD,2024-08-18 00:44:23,15.08843291,0.0001166,53.214,101.931,90.7626,269.35,0.00020737,3.014e-05,0.0,0 STARLINK-3890,1 52455U 22049E   24231.03083158  .00003014  00000-0  20737-3 0  9998,2 52455  53.2140 101.9310 0001166  90.7626 269.3500 15.08843291126428,6917.87,95.437,540.542,538.929,0.0
52455.0,STARLINK-3890,PAYLOAD,2024-08-18 21:24:24,15.08837344,0.0001265,53.2156,98.0633,116.4768,243.6354,4.9097e-05,4.94e-06,0.0,0 STARLINK-3890,1 52455U 22049E   24231.89195471  .00000494  00000-0  49097-4 0  9994,2 52455  53.2156  98.0633 0001265 116.4768 243.6354 15.08837344126550,6917.889,95.438,540.629,538.878,0.0
52455.0,STARLINK-3890,PAYLOAD,2024-08-19 00:35:11,15.08834451,0.0001163,53.2152,97.4696,101.2333,258.879,-3.5822e-05,-8.58e-06,0.0,0 STARLINK-3890,1 52455U 22049E   24232.02443799 -.00000858  00000-0 -35822-4 0  9996,2 52455  53.2152  97.4696 0001163 101.2333 258.8790 15.08834451126418,6917.897,95.438,540.567,538.958,0.0
52455.0,STARLINK-3890,PAYLOAD,2024-08-19 22:50:35,15.08845771,0.0001245,53.2156,93.3108,75.6372,284.4758,0.0001169,1.573e-05,0.0,0 STARLINK-3890,1 52455U 22049E   24232.95179666  .00001573  00000-0  11690-3 0  9996,2 52455  53.2156  93.3108 0001245  75.6372 284.4758 15.08845771126712,6917.863,95.437,540.589,538.866,0.0
52455.0,STARLINK-3890,PAYLOAD,2024-08-20 19:30:36,15.08823473,0.0001063,53.2151,89.4455,68.895,291.2156,-0.00011417,-2.103e-05,0.0,0 STARLINK-3890,1 52455U 22049E   24233.81292633 -.00002103  00000-0 -11417-3 0  9991,2 52455  53.2151  89.4455 0001063  68.8950 291.2156 15.08823473126849,6917.931,95.439,540.531,539.061,0.0
52455.0,STARLINK-3890,PAYLOAD,2024-08-21 00:16:46,15.0882805,9.94e-05,53.2151,88.5522,90.0766,270.034,-4.9322e-05,-1.072e-05,0.0,0 STARLINK-3890,1 52455U 22049E   24234.01164476 -.00001072  00000-0 -49322-4 0  9998,2 52455  53.2151  88.5522 0000994  90.0766 270.0340 15.08828050126877,6917.917,95.438,540.47,539.094,0.0
52455.0,STARLINK-3890,PAYLOAD,2024-08-21 20:56:47,15.08831083,0.0001003,53.2158,84.684,88.421,271.6897,-0.00010235,-1.916e-05,0.0,0 STARLINK-3890,1 52455U 22049E   24234.87277082 -.00001916  00000-0 -10235-3 0  9997,2 52455  53.2158  84.6840 0001003  88.4210 271.6897 15.08831083126842,6917.908,95.438,540.467,539.079,0.0
